[{"OBJECT_NAME":"CUTE-1.7+APD II (CO-65)","OBJECT_ID":"2008-021C","EPOCH":"2026-03-06T04:44:29.020704","MEAN_MOTION":15.08312336,"ECCENTRICITY":0.00101175,"INCLINATION":97.8209,"RA_OF_ASC_NODE":44.6065,"ARG_OF_PERICENTER":30.7915,"MEAN_ANOMALY":329.3904,"EPHEMERIS_TYPE":0,"CLASSIFICATION_TYPE":"U","NORAD_CAT_ID":32785,"ELEMENT_SET_NO":999,"REV_AT_EPOCH":96966,"BSTAR":0.00051765916,"MEAN_MOTION_DOT":7.978e-5,"MEAN_MOTION_DDOT":0},{"OBJECT_NAME":"SEEDS II (CO-66)","OBJECT_ID":"2008-021J","EPOCH":"2026-03-05T22:17:44.367936","MEAN_MOTION":15.28882634,"ECCENTRICITY":0.00020856,"INCLINATION":97.7518,"RA_OF_ASC_NODE":58.203,"ARG_OF_PERICENTER":9.8257,"MEAN_ANOMALY":350.3023,"EPHEMERIS_TYPE":0,"CLASSIFICATION_TYPE":"U","NORAD_CAT_ID":32791,"ELEMENT_SET_NO":999,"REV_AT_EPOCH":97149,"BSTAR":0.00081141194,"MEAN_MOTION_DOT":0.00022736,"MEAN_MOTION_DDOT":0},{"OBJECT_NAME":"YUBILEINY (RS30)","OBJECT_ID":"2008-025A","EPOCH":"2026-03-06T05:56:04.756992","MEAN_MOTION":12.43175721,"ECCENTRICITY":0.00193916,"INCLINATION":82.4987,"RA_OF_ASC_NODE":59.4644,"ARG_OF_PERICENTER":172.7452,"MEAN_ANOMALY":187.3912,"EPHEMERIS_TYPE":0,"CLASSIFICATION_TYPE":"U","NORAD_CAT_ID":32953,"ELEMENT_SET_NO":999,"REV_AT_EPOCH":80690,"BSTAR":-0.00032338134,"MEAN_MOTION_DOT":-3.5e-7,"MEAN_MOTION_DDOT":0},{"OBJECT_NAME":"KKS-1 (KISEKI)","OBJECT_ID":"2009-002H","EPOCH":"2026-03-06T05:25:11.333568","MEAN_MOTION":14.82813706,"ECCENTRICITY":0.00064175,"INCLINATION":98.1189,"RA_OF_ASC_NODE":346.0687,"ARG_OF_PERICENTER":264.5728,"MEAN_ANOMALY":95.4753,"EPHEMERIS_TYPE":0,"CLASSIFICATION_TYPE":"U","NORAD_CAT_ID":33499,"ELEMENT_SET_NO":999,"REV_AT_EPOCH":92093,"BSTAR":0.00030358313,"MEAN_MOTION_DOT":2.401e-5,"MEAN_MOTION_DDOT":0},{"OBJECT_NAME":"SWISSCUBE","OBJECT_ID":"2009-051B","EPOCH":"2026-03-06T04:37:51.918528","MEAN_MOTION":14.622483,"ECCENTRICITY":0.00068415,"INCLINATION":98.4101,"RA_OF_ASC_NODE":331.2738,"ARG_OF_PERICENTER":163.0927,"MEAN_ANOMALY":197.0503,"EPHEMERIS_TYPE":0,"CLASSIFICATION_TYPE":"U","NORAD_CAT_ID":35932,"ELEMENT_SET_NO":999,"REV_AT_EPOCH":87410,"BSTAR":0.00035868977,"MEAN_MOTION_DOT":1.759e-5,"MEAN_MOTION_DDOT":0},{"OBJECT_NAME":"BEESAT-1","OBJECT_ID":"2009-051C","EPOCH":"2026-03-06T06:53:07.257984","MEAN_MOTION":14.61523938,"ECCENTRICITY":0.00050778,"INCLINATION":98.4031,"RA_OF_ASC_NODE":331.2163,"ARG_OF_PERICENTER":173.8074,"MEAN_ANOMALY":186.319,"EPHEMERIS_TYPE":0,"CLASSIFICATION_TYPE":"U","NORAD_CAT_ID":35933,"ELEMENT_SET_NO":999,"REV_AT_EPOCH":87415,"BSTAR":0.00030751292,"MEAN_MOTION_DOT":1.477e-5,"MEAN_MOTION_DDOT":0},{"OBJECT_NAME":"ITUPSAT1","OBJECT_ID":"2009-051E","EPOCH":"2026-03-06T06:09:38.639808","MEAN_MOTION":14.60259585,"ECCENTRICITY":0.00070299,"INCLINATION":98.4119,"RA_OF_ASC_NODE":330.4839,"ARG_OF_PERICENTER":189.0317,"MEAN_ANOMALY":171.0757,"EPHEMERIS_TYPE":0,"CLASSIFICATION_TYPE":"U","NORAD_CAT_ID":35935,"ELEMENT_SET_NO":999,"REV_AT_EPOCH":87371,"BSTAR":0.00029045006,"MEAN_MOTION_DOT":1.353e-5,"MEAN_MOTION_DDOT":0},{"OBJECT_NAME":"XIWANG-1 (HOPE-1)","OBJECT_ID":"2009-072B","EPOCH":"2026-03-06T06:21:37.639008","MEAN_MOTION":13.1643481,"ECCENTRICITY":0.00080389,"INCLINATION":100.3914,"RA_OF_ASC_NODE":20.7967,"ARG_OF_PERICENTER":106.8424,"MEAN_ANOMALY":253.3571,"EPHEMERIS_TYPE":0,"CLASSIFICATION_TYPE":"U","NORAD_CAT_ID":36122,"ELEMENT_SET_NO":999,"REV_AT_EPOCH":77946,"BSTAR":-0.00074620564,"MEAN_MOTION_DOT":-3.29e-6,"MEAN_MOTION_DDOT":0},{"OBJECT_NAME":"O/OREOS (USA 219)","OBJECT_ID":"2010-062C","EPOCH":"2026-03-06T01:07:57.370656","MEAN_MOTION":14.93255856,"ECCENTRICITY":0.00169019,"INCLINATION":71.9718,"RA_OF_ASC_NODE":313.8877,"ARG_OF_PERICENTER":262.8141,"MEAN_ANOMALY":97.1108,"EPHEMERIS_TYPE":0,"CLASSIFICATION_TYPE":"U","NORAD_CAT_ID":37224,"ELEMENT_SET_NO":999,"REV_AT_EPOCH":10124,"BSTAR":0.00027461766,"MEAN_MOTION_DOT":2.82e-5,"MEAN_MOTION_DDOT":0},{"OBJECT_NAME":"JUGNU","OBJECT_ID":"2011-058B","EPOCH":"2026-03-05T16:39:03.586464","MEAN_MOTION":14.13738742,"ECCENTRICITY":0.00187006,"INCLINATION":19.9594,"RA_OF_ASC_NODE":217.1737,"ARG_OF_PERICENTER":13.5816,"MEAN_ANOMALY":94.8505,"EPHEMERIS_TYPE":0,"CLASSIFICATION_TYPE":"U","NORAD_CAT_ID":37839,"ELEMENT_SET_NO":999,"REV_AT_EPOCH":74436,"BSTAR":0.00014784302,"MEAN_MOTION_DOT":5.5e-6,"MEAN_MOTION_DDOT":0},{"OBJECT_NAME":"SRMSAT","OBJECT_ID":"2011-058D","EPOCH":"2026-03-06T02:21:31.467168","MEAN_MOTION":14.11545916,"ECCENTRICITY":0.00118543,"INCLINATION":19.973,"RA_OF_ASC_NODE":323.4416,"ARG_OF_PERICENTER":149.6798,"MEAN_ANOMALY":348.2789,"EPHEMERIS_TYPE":0,"CLASSIFICATION_TYPE":"U","NORAD_CAT_ID":37841,"ELEMENT_SET_NO":999,"REV_AT_EPOCH":74323,"BSTAR":0.00011347661,"MEAN_MOTION_DOT":4.74e-6,"MEAN_MOTION_DDOT":0},{"OBJECT_NAME":"STRAND-1","OBJECT_ID":"2013-009E","EPOCH":"2026-03-06T07:00:27.047808","MEAN_MOTION":14.37091392,"ECCENTRICITY":0.00088221,"INCLINATION":98.3884,"RA_OF_ASC_NODE":248.0682,"ARG_OF_PERICENTER":171.6035,"MEAN_ANOMALY":188.5301,"EPHEMERIS_TYPE":0,"CLASSIFICATION_TYPE":"U","NORAD_CAT_ID":39090,"ELEMENT_SET_NO":999,"REV_AT_EPOCH":68228,"BSTAR":0.00018806761,"MEAN_MOTION_DOT":5.16e-6,"MEAN_MOTION_DDOT":0},{"OBJECT_NAME":"ZACUBE-1 (TSHEPISOSAT)","OBJECT_ID":"2013-066B","EPOCH":"2026-03-05T20:40:59.028384","MEAN_MOTION":15.00278348,"ECCENTRICITY":0.00419543,"INCLINATION":97.8184,"RA_OF_ASC_NODE":26.667,"ARG_OF_PERICENTER":232.8651,"MEAN_ANOMALY":126.8737,"EPHEMERIS_TYPE":0,"CLASSIFICATION_TYPE":"U","NORAD_CAT_ID":39417,"ELEMENT_SET_NO":999,"REV_AT_EPOCH":66523,"BSTAR":0.00051561119,"MEAN_MOTION_DOT":6.518e-5,"MEAN_MOTION_DDOT":0},{"OBJECT_NAME":"GOMX-1","OBJECT_ID":"2013-066Q","EPOCH":"2026-03-06T06:47:41.707968","MEAN_MOTION":14.69081439,"ECCENTRICITY":0.01304736,"INCLINATION":97.6565,"RA_OF_ASC_NODE":272.2007,"ARG_OF_PERICENTER":48.3448,"MEAN_ANOMALY":312.8843,"EPHEMERIS_TYPE":0,"CLASSIFICATION_TYPE":"U","NORAD_CAT_ID":39430,"ELEMENT_SET_NO":999,"REV_AT_EPOCH":65480,"BSTAR":0.00031235599,"MEAN_MOTION_DOT":2.039e-5,"MEAN_MOTION_DDOT":0},{"OBJECT_NAME":"CUBEBUG-2 (LO-74)","OBJECT_ID":"2013-066AA","EPOCH":"2026-03-06T06:42:25.277472","MEAN_MOTION":14.92905655,"ECCENTRICITY":0.00591185,"INCLINATION":97.882,"RA_OF_ASC_NODE":13.9474,"ARG_OF_PERICENTER":10.4251,"MEAN_ANOMALY":349.8178,"EPHEMERIS_TYPE":0,"CLASSIFICATION_TYPE":"U","NORAD_CAT_ID":39440,"ELEMENT_SET_NO":999,"REV_AT_EPOCH":66163,"BSTAR":0.00070155336,"MEAN_MOTION_DOT":7.469e-5,"MEAN_MOTION_DDOT":0},{"OBJECT_NAME":"FUNCUBE-1 (AO-73)","OBJECT_ID":"2013-066AE","EPOCH":"2026-03-05T20:36:14.050944","MEAN_MOTION":15.07824461,"ECCENTRICITY":0.00368655,"INCLINATION":97.8186,"RA_OF_ASC_NODE":34.3315,"ARG_OF_PERICENTER":192.4906,"MEAN_ANOMALY":167.5412,"EPHEMERIS_TYPE":0,"CLASSIFICATION_TYPE":"U","NORAD_CAT_ID":39444,"ELEMENT_SET_NO":999,"REV_AT_EPOCH":66408,"BSTAR":0.00076147608,"MEAN_MOTION_DOT":0.00011786,"MEAN_MOTION_DDOT":0}]
